ONEWEB-0240             
1 48785U 21045U   23242.88464004 -.00000791  00000+0 -21360-2 0  9993
2 48785  87.8960 102.5478 0002395  84.2823 275.8580 13.15553915110123
ONEWEB-0246             
1 48786U 21045V   23243.03252749 -.00000040  00000+0 -14016-3 0  9991
2 48786  87.8962 102.5193 0002082  94.1865 265.9503 13.15545936111130
ONEWEB-0210             
1 48787U 21045W   23242.85505852 -.00001223  00000+0 -32828-2 0  9991
2 48787  87.8964 102.5634 0001987 104.8991 255.2359 13.15554313110033
ONEWEB-0214             
1 48788U 21045X   23242.86561899 -.00000102  00000+0 -30489-3 0  9993
2 48788  87.8963 102.5506 0001611 111.4990 248.6313 13.15551096110006
ONEWEB-0221             
1 48789U 21045Y   23242.87194414 -.00000364  00000+0 -10013-2 0  9990
2 48789  87.8965 102.5593 0002073  86.9594 273.1773 13.15548460111234
ONEWEB-0213             
1 48790U 21045Z   23243.01138646 -.00008564  00000+0 -22790-1 0  9998
2 48790  87.8963 102.5493 0001822  86.2514 273.8825 13.15592601111308
ONEWEB-0212             
1 48791U 21045AA  23242.84026622  .00000156  00000+0  38035-3 0  9997
2 48791  87.8965 102.5642 0001711  75.0663 285.0656 13.15550499110142
ONEWEB-0227             
1 48792U 21045AB  23242.68180002  .00000208  00000+0  51810-3 0  9997
2 48792  87.8966 102.6100 0001979  82.1987 277.9367 13.15550813110079
